1 27391U 02012A   04045.37711742  .00003003  00000-0  10197-3 0  9999
2 27391 089.0085 261.8334 0020977 104.5950 255.7636 15.29928708106675
1 27391U 02012A   04046.75068988 +.00003245 +00000-0 +11026-3 0  9999
2 27391 089.0092 261.6490 0020941 100.2625 260.1010 15.29938208106882
1 27391U 02012A   04047.73180981 +.00002718 +00000-0 +92161-4 0  9990
2 27391 089.0091 261.5169 0020852 096.7457 263.6135 15.29941349107030
1 27391U 02012A   04048.12425749  .00002552  00000-0  86445-4 0  9992
2 27391 089.0096 261.4653 0020885 095.7010 264.6624 15.29942848107097
1 27391U 02012A   04049.30159601  .00002654  00000-0  89941-4 0  9991
2 27391 089.0094 261.3084 0020973 091.8148 268.5538 15.29949315107272
1 27391U 02012A   04050.67515230 +.00002339 +00000-0 +79106-4 0  9999
2 27391 089.0098 261.1263 0020837 086.3129 274.0504 15.29954356107489
1 27391U 02012A   04051.72166821 +.00001964 +00000-0 +66222-4 0  9992
2 27391 089.0084 260.9863 0020782 082.7284 277.6298 15.29957099107642
1 27391U 02012A   04052.70277538 +.00001842 +00000-0 +62048-4 0  9996
2 27391 089.0082 260.8555 0020772 079.9378 280.4228 15.29960234107794
1 27391U 02012A   04053.09521714  .00002039  00000-0  68790-4 0  9996
2 27391 089.0083 260.8031 0020831 079.0353 281.3306 15.29962889107856
1 27391U 02012A   04054.20713175  .00002085  00000-0  70370-4 0  9992
2 27391 089.0072 260.6548 0020960 075.1741 285.1800 15.29967356108021
1 27391U 02012A   04055.05741926  .00001986  00000-0  66964-4 0  9994
2 27391 089.0080 260.5398 0020891 072.3974 287.9576 15.29970121108150
2 27391 089.0061 260.4609 0020918 070.4996 289.8484 15.29970598108243
1 27391U 02012A   04056.82339609 +.00001672 +00000-0 +56159-4 0  9998
2 27391 089.0069 260.3048 0021013 065.7372 294.6094 15.29974589108424
1 27391U 02012A   04057.73908157 +.00002164 +00000-0 +73036-4 0  9999
2 27391 089.0070 260.1822 0020996 062.5206 297.8200 15.29980626108562
1 27391U 02012A   04058.13151753  .00002275  00000-0  76841-4 0  9996
2 27391 089.0069 260.1298 0021016 061.2421 299.0953 15.29982811108620
1 27391U 02012A   04059.37423111  .00001887  00000-0  63536-4 0  9998
2 27391 089.0071 259.9634 0020910 056.8021 303.5212 15.29985766108813